{
  "type": "FeatureCollection",
  "features": [
    {
      "type": "Feature",
      "properties": {
        "norad_id": 66926,
        "name": "STARLINK-35942",
        "group": "last-30-days",
        "lat": 52.571145028700954,
        "lon": 58.685158925159605,
        "alt_km": 397.6185992074743,
        "timestamp": "2025-12-26T20:30:44.701881+00:00",
        "meta_object_name": "STARLINK-35942",
        "meta_object_id": "2025-286B",
        "meta_epoch": "2025-12-26T14:00:04.000032",
        "meta_mean_motion": 15.55031573,
        "meta_eccentricity": 0.0001163,
        "meta_inclination": 53.1592,
        "meta_ra_of_asc_node": 341.585,
        "meta_arg_of_pericenter": 82.0791,
        "meta_mean_anomaly": 281.8634,
        "meta_ephemeris_type": 0,
        "meta_classification_type": "U",
        "meta_norad_cat_id": 66926,
        "meta_element_set_no": 999,
        "meta_rev_at_epoch": 421,
        "meta_bstar": -0.034100708,
        "meta_mean_motion_dot": -0.0207598,
        "meta_mean_motion_ddot": 0,
        "tle_line1": "1 66926U 25286B   25360.58337963 -.02075980  00000+0 -34101-1 0  9994",
        "tle_line2": "2 66926  53.1592 341.5850 0001163  82.0791 281.8634 15.55031573  4214"
      },
      "geometry": {
        "type": "Point",
        "coordinates": [
          58.685158925159605,
          52.571145028700954
        ]
      }
    },
    {
      "type": "Feature",
      "properties": {
        "norad_id": 66927,
        "name": "STARLINK-35943",
        "group": "last-30-days",
        "lat": 52.83833226315338,
        "lon": 61.81701224310527,
        "alt_km": 397.62259335718136,
        "timestamp": "2025-12-26T20:30:44.701890+00:00",
        "meta_object_name": "STARLINK-35943",
        "meta_object_id": "2025-286C",
        "meta_epoch": "2025-12-26T14:00:04.000032",
        "meta_mean_motion": 15.55032654,
        "meta_eccentricity": 0.00010975,
        "meta_inclination": 53.1591,
        "meta_ra_of_asc_node": 341.5806,
        "meta_arg_of_pericenter": 83.582,
        "meta_mean_anomaly": 282.2746,
        "meta_ephemeris_type": 0,
        "meta_classification_type": "U",
        "meta_norad_cat_id": 66927,
        "meta_element_set_no": 999,
        "meta_rev_at_epoch": 421,
        "meta_bstar": -0.034074568,
        "meta_mean_motion_dot": -0.02074595,
        "meta_mean_motion_ddot": 0,
        "tle_line1": "1 66927U 25286C   25360.58337963 -.02074595  00000+0 -34075-1 0  9996",
        "tle_line2": "2 66927  53.1591 341.5806 0001097  83.5820 282.2746 15.55032654  4210"
      },
      "geometry": {
        "type": "Point",
        "coordinates": [
          61.81701224310527,
          52.83833226315338
        ]
      }
    },
    {
      "type": "Feature",
      "properties": {
        "norad_id": 66928,
        "name": "STARLINK-35944",
        "group": "last-30-days",
        "lat": 52.22178208984517,
        "lon": 55.593929290525836,
        "alt_km": 397.6950957254703,
        "timestamp": "2025-12-26T20:30:44.701899+00:00",
        "meta_object_name": "STARLINK-35944",
        "meta_object_id": "2025-286D",
        "meta_epoch": "2025-12-26T14:00:04.000032",
        "meta_mean_motion": 15.550307,
        "meta_eccentricity": 0.00011205,
        "meta_inclination": 53.1591,
        "meta_ra_of_asc_node": 341.588,
        "meta_arg_of_pericenter": 80.4623,
        "meta_mean_anomaly": 281.5638,
        "meta_ephemeris_type": 0,
        "meta_classification_type": "U",
        "meta_norad_cat_id": 66928,
        "meta_element_set_no": 999,
        "meta_rev_at_epoch": 421,
        "meta_bstar": -0.034074654,
        "meta_mean_motion_dot": -0.0207448,
        "meta_mean_motion_ddot": 0,
        "tle_line1": "1 66928U 25286D   25360.58337963 -.02074480  00000+0 -34075-1 0  9990",
        "tle_line2": "2 66928  53.1591 341.5880 0001120  80.4623 281.5638 15.55030700  4219"
      },
      "geometry": {
        "type": "Point",
        "coordinates": [
          55.593929290525836,
          52.22178208984517
        ]
      }
    },
    {
      "type": "Feature",
      "properties": {
        "norad_id": 66929,
        "name": "STARLINK-36169",
        "group": "last-30-days",
        "lat": 53.022143341948855,
        "lon": 64.98183459562658,
        "alt_km": 397.47867154339565,
        "timestamp": "2025-12-26T20:30:44.701909+00:00",
        "meta_object_name": "STARLINK-36169",
        "meta_object_id": "2025-286E",
        "meta_epoch": "2025-12-26T14:00:04.000032",
        "meta_mean_motion": 15.55028109,
        "meta_eccentricity": 0.00012847,
        "meta_inclination": 53.1592,
        "meta_ra_of_asc_node": 341.5767,
        "meta_arg_of_pericenter": 91.2578,
        "meta_mean_anomaly": 276.5191,
        "meta_ephemeris_type": 0,
        "meta_classification_type": "U",
        "meta_norad_cat_id": 66929,
        "meta_element_set_no": 999,
        "meta_rev_at_epoch": 421,
        "meta_bstar": -0.034022122,
        "meta_mean_motion_dot": -0.02071556,
        "meta_mean_motion_ddot": 0,
        "tle_line1": "1 66929U 25286E   25360.58337963 -.02071556  00000+0 -34022-1 0  9994",
        "tle_line2": "2 66929  53.1592 341.5767 0001284  91.2578 276.5191 15.55028109  4213"
      },
      "geometry": {
        "type": "Point",
        "coordinates": [
          64.98183459562658,
          53.022143341948855
        ]
      }
    },
    {
      "type": "Feature",
      "properties": {
        "norad_id": 66930,
        "name": "STARLINK-36206",
        "group": "last-30-days",
        "lat": 53.12085508931928,
        "lon": 68.17405611016973,
        "alt_km": 397.6971728277704,
        "timestamp": "2025-12-26T20:30:44.701918+00:00",
        "meta_object_name": "STARLINK-36206",
        "meta_object_id": "2025-286F",
        "meta_epoch": "2025-12-26T14:00:04.000032",
        "meta_mean_motion": 15.55033514,
        "meta_eccentricity": 9.588e-05,
        "meta_inclination": 53.1589,
        "meta_ra_of_asc_node": 341.5723,
        "meta_arg_of_pericenter": 89.1158,
        "meta_mean_anomaly": 280.5788,
        "meta_ephemeris_type": 0,
        "meta_classification_type": "U",
        "meta_norad_cat_id": 66930,
        "meta_element_set_no": 999,
        "meta_rev_at_epoch": 421,
        "meta_bstar": -0.034134158,
        "meta_mean_motion_dot": -0.02077801,
        "meta_mean_motion_ddot": 0,
        "tle_line1": "1 66930U 25286F   25360.58337963 -.02077801  00000+0 -34134-1 0  9999",
        "tle_line2": "2 66930  53.1589 341.5723 0000958  89.1158 280.5788 15.55033514  4213"
      },
      "geometry": {
        "type": "Point",
        "coordinates": [
          68.17405611016973,
          53.12085508931928
        ]
      }
    },
    {
      "type": "Feature",
      "properties": {
        "norad_id": 66931,
        "name": "STARLINK-36130",
        "group": "last-30-days",
        "lat": 53.134051479681986,
        "lon": 71.36646271661098,
        "alt_km": 397.45578357713384,
        "timestamp": "2025-12-26T20:30:44.701927+00:00",
        "meta_object_name": "STARLINK-36130",
        "meta_object_id": "2025-286G",
        "meta_epoch": "2025-12-26T14:00:04.000032",
        "meta_mean_motion": 15.55030064,
        "meta_eccentricity": 0.00012906,
        "meta_inclination": 53.1589,
        "meta_ra_of_asc_node": 341.5689,
        "meta_arg_of_pericenter": 89.6316,
        "meta_mean_anomaly": 281.9769,
        "meta_ephemeris_type": 0,
        "meta_classification_type": "U",
        "meta_norad_cat_id": 66931,
        "meta_element_set_no": 999,
        "meta_rev_at_epoch": 421,
        "meta_bstar": -0.034056575,
        "meta_mean_motion_dot": -0.02073563,
        "meta_mean_motion_ddot": 0,
        "tle_line1": "1 66931U 25286G   25360.58337963 -.02073563  00000+0 -34057-1 0  9995",
        "tle_line2": "2 66931  53.1589 341.5689 0001290  89.6316 281.9769 15.55030064  4217"
      },
      "geometry": {
        "type": "Point",
        "coordinates": [
          71.36646271661098,
          53.134051479681986
        ]
      }
    },
    {
      "type": "Feature",
      "properties": {
        "norad_id": 66932,
        "name": "STARLINK-36177",
        "group": "last-30-days",
        "lat": 53.061362463529036,
        "lon": 74.5663134503315,
        "alt_km": 397.6755559594012,
        "timestamp": "2025-12-26T20:30:44.701936+00:00",
        "meta_object_name": "STARLINK-36177",
        "meta_object_id": "2025-286H",
        "meta_epoch": "2025-12-26T14:00:04.000032",
        "meta_mean_motion": 15.5503308,
        "meta_eccentricity": 0.00010025,
        "meta_inclination": 53.159,
        "meta_ra_of_asc_node": 341.564,
        "meta_arg_of_pericenter": 81.2861,
        "meta_mean_anomaly": 292.2415,
        "meta_ephemeris_type": 0,
        "meta_classification_type": "U",
        "meta_norad_cat_id": 66932,
        "meta_element_set_no": 999,
        "meta_rev_at_epoch": 421,
        "meta_bstar": -0.034135433,
        "meta_mean_motion_dot": -0.02077867,
        "meta_mean_motion_ddot": 0,
        "tle_line1": "1 66932U 25286H   25360.58337963 -.02077867  00000+0 -34135-1 0  9994",
        "tle_line2": "2 66932  53.1590 341.5640 0001002  81.2861 292.2415 15.55033080  4215"
      },
      "geometry": {
        "type": "Point",
        "coordinates": [
          74.5663134503315,
          53.061362463529036
        ]
      }
    }
  ]
}